E-ST@R-II               
1 41459U 16025D   22315.24109258  .00026236  00000+0  10284-2 0  9996
2 41459  98.1936 131.7501 0135745 129.9600 231.3694 15.17531274359721
AAUSAT 4                
1 41460U 16025E   22315.20864954  .00041121  00000+0  13283-2 0  9997
2 41460  98.1800 139.4590 0110192 100.1852 261.2090 15.26207673360261
BEESAT-4                
1 41619U 16040W   22314.64971885  .00020104  00000+0  57529-3 0  9999
2 41619  97.1974   1.6229 0006871 320.9451  39.1296 15.35960123343124
RAVAN                   
1 41849U 16067B   22314.82344943  .00006647  00000+0  51296-3 0  9993
2 41849  98.0077  96.2448 0016639 202.4568 157.5929 15.01818934327958
CELTEE 1                
1 41850U 16067C   22315.32700356  .00003828  00000+0  31941-3 0  9998
2 41850  98.0177  91.2713 0008461 191.6340 168.4688 14.99178447327757
OPTICUBE 04             
1 41851U 16067D   22314.84904833  .00002593  00000+0  22340-3 0  9992
2 41851  98.0164  89.6300 0008477 205.4568 154.6237 14.98247835327620
AEROCUBE 8D             
1 41852U 16067E   22315.25618760  .00004192  00000+0  34929-3 0  9993
2 41852  98.0147  90.1914 0009151 197.2122 162.8791 14.99172499327680
AEROCUBE 8C             
1 41853U 16067F   22315.37351519  .00003695  00000+0  30874-3 0  9995
2 41853  98.0133  90.1212 0010205 210.3944 149.6688 14.99143248327697
PROMETHEUS 2-1          
1 41854U 16067G   22315.14268124  .00006693  00000+0  52940-3 0  9999
2 41854  98.0291  91.3183 0016219 219.8042 140.1992 15.00881346327737
PROMETHEUS 2-3          
1 41855U 16067H   22314.93380478  .00007375  00000+0  58330-3 0  9990
2 41855  98.0264  91.1605 0012823 243.6366 116.3541 15.00884635327702
INS-1B                  
1 41954U 17008G   22314.68939476  .00019543  00000+0  55804-3 0  9999
2 41954  97.2389  11.7730 0008106  75.9280 284.2865 15.36023851319156
BGUSAT                  
1 41999U 17008BD  22314.71918212  .00075285  00000+0  11581-2 0  9995
2 41999  97.2632  25.4914 0003835  65.8395 294.3259 15.53965829319238
DIDO-2                  
1 42000U 17008BE  22314.64297516  .00009542  00000+0  32170-3 0  9999
2 42000  97.2385  10.2957 0008719  97.4735 262.7498 15.30896298318412
PEASSS                  
1 42015U 17008BV  22314.72329341  .00017498  00000+0  50797-3 0  9990
2 42015  97.2450  15.1110 0006285  90.1971 269.9994 15.35540663319186
AL-FARABI 1             
1 42016U 17008BW  22314.73012282  .00026810  00000+0  66675-3 0  9995
2 42016  97.2523  19.0295 0005173  87.2261 272.9577 15.40251280319517
NAYIF-1 (EO-88)         
1 42017U 17008BX  22314.72893435  .00028167  00000+0  69479-3 0  9994
2 42017  97.2514  19.0624 0005372  84.9406 275.2454 15.40489046319546
UCLSAT                  
1 42765U 17036A   22314.62660082  .00017554  00000+0  53897-3 0  9999
2 42765  97.1791 352.9053 0009422 150.6413 209.5361 15.33742077300226
LITUANICASAT-2          
1 42768U 17036D   22314.79442171  .00050700  00000+0  10568-2 0  9994
2 42768  97.1856 357.6336 0009653 131.1275 229.0809 15.45365453299765
AALTO-1                 
1 42775U 17036L   22314.80607012  .00009254  00000+0  34204-3 0  9993
2 42775  97.1814 347.1396 0012460 158.6207 201.5556 15.27855277299106
URSA MAIOR              
1 42776U 17036M   22314.72440812  .00010949  00000+0  39448-3 0  9996
2 42776  97.1826 347.9554 0012067 156.9003 203.2782 15.28656073299139
COMPASS 2               
1 42777U 17036N   22314.64336041  .00028136  00000+0  73183-3 0  9997
2 42777  97.1858 355.9107 0009766 136.9801 223.2210 15.38831813299578
DIAMOND RED             
1 42783U 17036U   22315.08407331  .00012356  00000+0  42353-3 0  9996
2 42783  97.1825 350.9363 0010447 157.7644 202.4052 15.30271470299349
PEGASUS                 
1 42784U 17036V   22314.64580258  .00015714  00000+0  50195-3 0  9992
2 42784  97.1816 352.0106 0010149 155.1616 205.0117 15.32495809299378
DIAMOND GREEN           
1 42785U 17036W   22314.62619827  .00012668  00000+0  43338-3 0  9992
2 42785  97.1827 350.5601 0010195 160.7231 199.4398 15.30329938299341
DIAMOND BLUE            
1 42786U 17036X   22315.08326567  .00012721  00000+0  43532-3 0  9996
2 42786  97.1827 350.9937 0010319 159.3347 200.8314 15.30318222299336
NUDTSAT                 
1 42787U 17036Y   22314.90812952  .00047122  00000+0  11537-2 0  9997
2 42787  97.1846 357.7047 0008564 139.0268 221.1616 15.40583375299583
SUCHAI                  
1 42788U 17036Z   22314.63429589  .00019433  00000+0  56859-3 0  9999
2 42788  97.1815 354.0987 0009400 148.3402 211.8409 15.35247833299571
SKCUBE                  
1 42789U 17036AA  22314.65540081  .00018328  00000+0  55817-3 0  9998
2 42789  97.1816 353.3813 0009587 149.3971 210.7833 15.33991140299452
VZLUSAT-1               
1 42790U 17036AB  22314.67570345  .00031764  00000+0  78923-3 0  9990
2 42790  97.1831 357.4004 0008281 138.4740 221.7137 15.40222920299697
ROBUSTA 1B              
1 42792U 17036AD  22314.61428554  .00019629  00000+0  58146-3 0  9991
2 42792  97.1815 354.0401 0009018 148.8127 211.3654 15.34859291299507
CICERO 6                
1 42793U 17036AE  22314.66350695  .00010809  00000+0  37497-3 0  9994
2 42793  97.1803 351.0015 0009069 157.8626 202.3008 15.29927947299403
CORVUS BC2              
1 42846U 17042X   22314.85011174  .00002339  00000+0  22806-3 0  9994
2 42846  97.4020 163.7710 0008222 219.1930 140.8696 14.93332108290124
CORVUS BC1              
1 42847U 17042Y   22314.58617903  .00002361  00000+0  22971-3 0  9995
2 42847  97.4023 163.8514 0007920 218.7661 141.2993 14.93409023290093
MIRATA                  
1 43015U 17073C   22315.18995254  .00009541  00000+0  66486-3 0  9998
2 43015  97.6552 205.0815 0233374  58.1161 304.2532 14.86119614269045
MAKERSAT 0              
1 43016U 17073D   22314.67234154  .00006486  00000+0  46792-3 0  9990
2 43016  97.6563 203.7673 0242372  65.5099 297.1182 14.83748463268862
CORVUS BC3              
1 43118U 18004H   22314.76751402  .00011040  00000+0  38493-3 0  9999
2 43118  97.3490  25.6722 0008312 195.3247 164.7743 15.29769657268566
MICROMAS-2A             
1 43131U 18004W   22314.77988666  .00045462  00000+0  95877-3 0  9993
2 43131  97.3638  35.0353 0005285 179.2338 180.8920 15.45082315269090
SPACEBEE-4              
1 43139U 18004AE  22314.77478292  .00242881  00000+0  18864-2 0  9994
2 43139  97.3698  43.0689 0003877 229.9159 130.1764 15.71050848269554
CICERO 7                
1 43143U 18004AJ  22314.74645557  .00019561  00000+0  51350-3 0  9991
2 43143  97.3631  33.6238 0005277 181.7835 178.3392 15.38658913269026
GOMX-4B                 
1 43196U 18015E   22314.98540961  .00009535  00000+0  33830-3 0  9993
2 43196  97.5538  96.1054 0015375 259.5842 100.3665 15.29174208265534
GOMX-4A                 
1 43197U 18015F   22315.18274196  .00015139  00000+0  50238-3 0  9999
2 43197  97.5519  97.5227 0015053 257.0515 208.2512 15.31229977265653
AEROCUBE 12A            
1 43556U 18046C   22314.83500424  .00029598  00000+0  59498-3 0  9990
2 43556  51.6333 187.2515 0008193 195.6486 164.4249 15.46349962241900
AEROCUBE 12B            
1 43557U 18046D   22314.88857942  .00024761  00000+0  56600-3 0  9995
2 43557  51.6346 194.2663 0008001 191.9862 168.0935 15.42655613241767
SURFSAT                 
1 43614U 18070B   22315.21832582  .00097992  00000+0  75057-3 0  9990
2 43614  93.0042 161.4675 0008437 129.2841 230.9180 15.71783663233960
CP7 (DAVE)              
1 43615U 18070C   22315.09749251  .00085379  00000+0  76251-3 0  9990
2 43615  93.0038 161.0595 0009041 135.4219 224.7780 15.68090486233881
CUBEBEL-1 (BSUSAT-1)    
1 43666U 18083E   22315.50162314  .00018340  00000+0  70928-3 0  9994
2 43666  97.4083 342.6847 0012565 166.8473 330.8573 15.26195496223886
CICERO 10               
1 43690U 18088A   22314.80840567  .00014268  00000+0  52788-3 0  9990
2 43690  85.0393 219.0334 0011620 339.5042  20.5735 15.27498406222071
IRVINE01                
1 43693U 18088D   22313.88327529  .00131778  00000+0  19764-2 0  9990
2 43693  85.0261 211.3613 0001920 333.3972  26.7189 15.54463351222655
PROXIMA I               
1 43694U 18088E   22315.13042854  .00013648  00000+0  47749-3 0  9996
2 43694  85.0321 215.1345 0013093 297.4826  62.5088 15.29312644222352
PROXIMA II              
1 43696U 18088G   22314.74073064  .00013295  00000+0  46587-3 0  9998
2 43696  85.0327 215.4205 0013256 299.2423  60.7497 15.29256311222297
FACSAT-1                
1 43721U 18096C   22315.38061515  .00050671  00000+0  11307-2 0  9995
2 43721  97.3418  35.5493 0011292 237.5039 187.5037 15.43329764220575
CENTAURI-2              
1 43722U 18096D   22314.75760749  .00057406  00000+0  10224-2 0  9991
2 43722  97.3459  37.9720 0010696 238.7842 121.2362 15.49874956220640
INNOSAT-2               
1 43738U 18096V   22315.02120278  .00443220  00000+0  20829-2 0  9991
2 43738  97.3488  48.9694 0011890 232.0391 179.6134 15.81927741221343
SIRION PATHFINDER-2     
1 43759U 18099B   22315.19835497  .00003536  00000+0  31213-3 0  9993
2 43759  97.6044  18.0439 0015348 125.2735 234.9926 14.96925376214993
CORVUS BC4              
1 43767U 18099K   22315.14419857  .00002615  00000+0  23577-3 0  9996
2 43767  97.5999  16.2831 0012499 130.2035 230.0283 14.96340196214904
MOVE-II                 
1 43780U 18099Y   22315.14366882  .00006705  00000+0  55534-3 0  9992
2 43780  97.6113  19.1508 0013948 130.1985 230.0462 14.99107328215028
SPACEBEE-7              
1 43816U 18099BL  22315.14935256  .00004994  00000+0  41879-3 0  9994
2 43816  97.6131  19.8752 0014112 116.7121 243.5548 14.98748399214618
SPACEBEE-5              
1 43817U 18099BM  22314.72812435  .00013979  00000+0  10081-2 0  9994
2 43817  97.6216  23.4482 0006627 116.3644 243.8263 15.04233689214731
SPACEBEE-6              
1 43818U 18099BN  22315.12014576  .00007391  00000+0  59339-3 0  9991
2 43818  97.6119  21.0592 0015302 124.3930 235.8743 15.00257063214818
